{
  "type": "FeatureCollection",
  "features": [
    {
      "type": "Feature",
      "properties": {
        "norad_id": 2807,
        "name": "OPS 7218 (TRANSIT 16)",
        "group": "nnss",
        "lat": 78.14673861343383,
        "lon": -4.85945189997189,
        "alt_km": 1045.9027528847746,
        "timestamp": "2025-12-25T19:00:39.619225+00:00",
        "meta_object_name": "OPS 7218 (TRANSIT 16)",
        "meta_object_id": "1967-048A",
        "meta_epoch": "2025-12-25T01:10:04.103904",
        "meta_mean_motion": 13.50724741,
        "meta_eccentricity": 0.00221479,
        "meta_inclination": 89.6734,
        "meta_ra_of_asc_node": 353.6078,
        "meta_arg_of_pericenter": 81.3315,
        "meta_mean_anomaly": 343.8092,
        "meta_ephemeris_type": 0,
        "meta_classification_type": "U",
        "meta_norad_cat_id": 2807,
        "meta_element_set_no": 999,
        "meta_rev_at_epoch": 88442,
        "meta_bstar": 0.00013354144,
        "meta_mean_motion_dot": 9.6e-07,
        "meta_mean_motion_ddot": 0,
        "tle_line1": "1 02807U 67048A   25359.04865861  .00000096  00000+0  13354-3 0  9997",
        "tle_line2": "2 02807  89.6734 353.6078 0022147  81.3315 343.8092 13.50724741884424"
      },
      "geometry": {
        "type": "Point",
        "coordinates": [
          -4.85945189997189,
          78.14673861343383
        ]
      }
    },
    {
      "type": "Feature",
      "properties": {
        "norad_id": 2965,
        "name": "OPS 4947 (TRANSIT 17)",
        "group": "nnss",
        "lat": -88.42343865699605,
        "lon": -5.036878241580313,
        "alt_km": 1058.1506849800262,
        "timestamp": "2025-12-25T19:00:39.619247+00:00",
        "meta_object_name": "OPS 4947 (TRANSIT 17)",
        "meta_object_id": "1967-092A",
        "meta_epoch": "2025-12-24T15:39:13.887648",
        "meta_mean_motion": 13.53456658,
        "meta_eccentricity": 0.00470847,
        "meta_inclination": 89.2486,
        "meta_ra_of_asc_node": 23.5265,
        "meta_arg_of_pericenter": 199.1608,
        "meta_mean_anomaly": 281.0103,
        "meta_ephemeris_type": 0,
        "meta_classification_type": "U",
        "meta_norad_cat_id": 2965,
        "meta_element_set_no": 999,
        "meta_rev_at_epoch": 87258,
        "meta_bstar": 0.00018040166,
        "meta_mean_motion_dot": 1.33e-06,
        "meta_mean_motion_ddot": 0,
        "tle_line1": "1 02965U 67092A   25358.65224407  .00000133  00000+0  18040-3 0  9991",
        "tle_line2": "2 02965  89.2486  23.5265 0047084 199.1608 281.0103 13.53456658872582"
      },
      "geometry": {
        "type": "Point",
        "coordinates": [
          -5.036878241580313,
          -88.42343865699605
        ]
      }
    },
    {
      "type": "Feature",
      "properties": {
        "norad_id": 3133,
        "name": "OPS 7034 (TRANSIT 18)",
        "group": "nnss",
        "lat": -28.9676472676225,
        "lon": -86.30800491760205,
        "alt_km": 1124.9665259152835,
        "timestamp": "2025-12-25T19:00:39.619261+00:00",
        "meta_object_name": "OPS 7034 (TRANSIT 18)",
        "meta_object_id": "1968-012A",
        "meta_epoch": "2025-12-25T07:16:25.166784",
        "meta_mean_motion": 13.51568645,
        "meta_eccentricity": 0.00749856,
        "meta_inclination": 90.0285,
        "meta_ra_of_asc_node": 273.6748,
        "meta_arg_of_pericenter": 133.0584,
        "meta_mean_anomaly": 340.2103,
        "meta_ephemeris_type": 0,
        "meta_classification_type": "U",
        "meta_norad_cat_id": 3133,
        "meta_element_set_no": 999,
        "meta_rev_at_epoch": 57088,
        "meta_bstar": 0.00021382426,
        "meta_mean_motion_dot": 1.52e-06,
        "meta_mean_motion_ddot": 0,
        "tle_line1": "1 03133U 68012A   25359.30306906  .00000152  00000+0  21382-3 0  9994",
        "tle_line2": "2 03133  90.0285 273.6748 0074985 133.0584 340.2103 13.51568645570885"
      },
      "geometry": {
        "type": "Point",
        "coordinates": [
          -86.30800491760205,
          -28.9676472676225
        ]
      }
    },
    {
      "type": "Feature",
      "properties": {
        "norad_id": 4507,
        "name": "NNSS 19 (TRANSIT 19)",
        "group": "nnss",
        "lat": -67.77748615304625,
        "lon": -125.44591418417794,
        "alt_km": 972.8756665411465,
        "timestamp": "2025-12-25T19:00:39.619274+00:00",
        "meta_object_name": "NNSS 19 (TRANSIT 19)",
        "meta_object_id": "1970-067A",
        "meta_epoch": "2025-12-25T05:07:31.565856",
        "meta_mean_motion": 13.51317581,
        "meta_eccentricity": 0.01702064,
        "meta_inclination": 90.0047,
        "meta_ra_of_asc_node": 234.5423,
        "meta_arg_of_pericenter": 256.8648,
        "meta_mean_anomaly": 101.3462,
        "meta_ephemeris_type": 0,
        "meta_classification_type": "U",
        "meta_norad_cat_id": 4507,
        "meta_element_set_no": 999,
        "meta_rev_at_epoch": 72390,
        "meta_bstar": 0.00013220227,
        "meta_mean_motion_dot": 1.02e-06,
        "meta_mean_motion_ddot": 0,
        "tle_line1": "1 04507U 70067A   25359.21355979  .00000102  00000+0  13220-3 0  9994",
        "tle_line2": "2 04507  90.0047 234.5423 0170206 256.8648 101.3462 13.51317581723909"
      },
      "geometry": {
        "type": "Point",
        "coordinates": [
          -125.44591418417794,
          -67.77748615304625
        ]
      }
    },
    {
      "type": "Feature",
      "properties": {
        "norad_id": 6909,
        "name": "NNSS 20 (TRANSIT 20)",
        "group": "nnss",
        "lat": -47.738968552920305,
        "lon": 75.01718114393661,
        "alt_km": 1115.2520991512201,
        "timestamp": "2025-12-25T19:00:39.619285+00:00",
        "meta_object_name": "NNSS 20 (TRANSIT 20)",
        "meta_object_id": "1973-081A",
        "meta_epoch": "2025-12-25T05:39:04.894848",
        "meta_mean_motion": 13.71440852,
        "meta_eccentricity": 0.01561267,
        "meta_inclination": 89.856,
        "meta_ra_of_asc_node": 254.867,
        "meta_arg_of_pericenter": 41.2783,
        "meta_mean_anomaly": 320.0059,
        "meta_ephemeris_type": 0,
        "meta_classification_type": "U",
        "meta_norad_cat_id": 6909,
        "meta_element_set_no": 999,
        "meta_rev_at_epoch": 80532,
        "meta_bstar": 0.00028066336,
        "meta_mean_motion_dot": 2.86e-06,
        "meta_mean_motion_ddot": 0,
        "tle_line1": "1 06909U 73081A   25359.23547332  .00000286  00000+0  28066-3 0  9996",
        "tle_line2": "2 06909  89.8560 254.8670 0156126  41.2783 320.0059 13.71440852805322"
      },
      "geometry": {
        "type": "Point",
        "coordinates": [
          75.01718114393661,
          -47.738968552920305
        ]
      }
    },
    {
      "type": "Feature",
      "properties": {
        "norad_id": 10457,
        "name": "TRANSAT",
        "group": "nnss",
        "lat": -5.104845385608951,
        "lon": -101.83386233192556,
        "alt_km": 1063.0451160192015,
        "timestamp": "2025-12-25T19:00:39.619296+00:00",
        "meta_object_name": "TRANSAT",
        "meta_object_id": "1977-106A",
        "meta_epoch": "2025-12-25T03:56:24.941184",
        "meta_mean_motion": 13.48945499,
        "meta_eccentricity": 0.00265218,
        "meta_inclination": 89.6475,
        "meta_ra_of_asc_node": 78.1569,
        "meta_arg_of_pericenter": 154.2871,
        "meta_mean_anomaly": 222.9086,
        "meta_ephemeris_type": 0,
        "meta_classification_type": "U",
        "meta_norad_cat_id": 10457,
        "meta_element_set_no": 999,
        "meta_rev_at_epoch": 36911,
        "meta_bstar": 0.00012822954,
        "meta_mean_motion_dot": 9.1e-07,
        "meta_mean_motion_ddot": 0,
        "tle_line1": "1 10457U 77106A   25359.16417756  .00000091  00000+0  12823-3 0  9997",
        "tle_line2": "2 10457  89.6475  78.1569 0026521 154.2871 222.9086 13.48945499369113"
      },
      "geometry": {
        "type": "Point",
        "coordinates": [
          -101.83386233192556,
          -5.104845385608951
        ]
      }
    },
    {
      "type": "Feature",
      "properties": {
        "norad_id": 12458,
        "name": "NOVA 1",
        "group": "nnss",
        "lat": -38.24494065891843,
        "lon": 91.08430203243745,
        "alt_km": 1182.6690697472022,
        "timestamp": "2025-12-25T19:00:39.619307+00:00",
        "meta_object_name": "NOVA 1",
        "meta_object_id": "1981-044A",
        "meta_epoch": "2025-12-25T00:07:00.564960",
        "meta_mean_motion": 13.23279741,
        "meta_eccentricity": 0.00157413,
        "meta_inclination": 89.8525,
        "meta_ra_of_asc_node": 91.2118,
        "meta_arg_of_pericenter": 73.8704,
        "meta_mean_anomaly": 99.9773,
        "meta_ephemeris_type": 0,
        "meta_classification_type": "U",
        "meta_norad_cat_id": 12458,
        "meta_element_set_no": 999,
        "meta_rev_at_epoch": 15348,
        "meta_bstar": 0.00017384443,
        "meta_mean_motion_dot": 8.3e-07,
        "meta_mean_motion_ddot": 0,
        "tle_line1": "1 12458U 81044A   25359.00486765  .00000083  00000+0  17384-3 0  9993",
        "tle_line2": "2 12458  89.8525  91.2118 0015741  73.8704  99.9773 13.23279741153482"
      },
      "geometry": {
        "type": "Point",
        "coordinates": [
          91.08430203243745,
          -38.24494065891843
        ]
      }
    }
  ]
}